IRIDIUM 173             
1 43925U 19002D   26065.97581937  .00000003  00000+0 -58408-5 0  9996
2 43925  86.3967  36.2672 0002025  82.7133 277.4292 14.34216659374304
IRIDIUM 169             
1 43926U 19002E   26066.07481471  .00000182  00000+0  52859-4 0  9991
2 43926  86.4169  67.8812 0001472  78.8945 281.2418 14.38611238375544
IRIDIUM 172             
1 43927U 19002F   26066.17878134  .00000200  00000+0  64417-4 0  9993
2 43927  86.3968  36.1895 0002387  86.1688 273.9780 14.34219350374345
IRIDIUM 175             
1 43928U 19002G   26066.13485949  .00001215  00000+0  18875-3 0  9991
2 43928  86.1542 333.8719 0002447 110.2323 249.9157 14.72253941384221
IRIDIUM 171             
1 43929U 19002H   26065.95045080  .00000014  00000+0 -19226-5 0  9999
2 43929  86.3977  36.5799 0002098  91.9646 268.1790 14.34217461374305
IRIDIUM 170             
1 43930U 19002J   26065.94173820  .00001252  00000+0  19464-3 0  9990
2 43930  86.6089  36.2742 0002708  89.6796 270.4732 14.72253456384216
IRIDIUM 167             
1 43931U 19002K   26066.01387596 -.00000017  00000+0 -13078-4 0  9993
2 43931  86.3965  36.2804 0001767  92.0902 268.0496 14.34217352374310
IRIDIUM 181             
1 56726U 23068S   26066.12290766  .00000363  00000+0  10198-3 0  9991
2 56726  86.4456  99.4735 0002634  96.5729 263.5772 14.43316622147715
IRIDIUM 177             
1 56727U 23068T   26066.10890490  .00001830  00000+0  23724-3 0  9999
2 56727  86.2002  17.2471 0002317  80.3476 279.8006 14.80251725151262
IRIDIUM 174             
1 56728U 23068U   26065.92937396  .00001367  00000+0  21281-3 0  9997
2 56728  86.6097  36.4164 0002566  80.3466 279.8041 14.72258045150977
IRIDIUM 178             
1 56729U 23068V   26066.03044711  .00000647  00000+0  81677-4 0  9997
2 56729  86.6483  68.0507 0002403 100.8049 259.3443 14.80233493151254
IRIDIUM 179             
1 56730U 23068W   26066.09267847  .00000574  00000+0  72091-4 0  9991
2 56730  86.6719  76.7084 0002297  95.0941 265.0542 14.80234613151261
