[{"OBJECT_NAME":"IRIDIUM 173","OBJECT_ID":"2019-002D","EPOCH":"2026-03-06T23:25:10.793568","MEAN_MOTION":14.34216659,"ECCENTRICITY":0.0002025,"INCLINATION":86.3967,"RA_OF_ASC_NODE":36.2672,"ARG_OF_PERICENTER":82.7133,"MEAN_ANOMALY":277.4292,"EPHEMERIS_TYPE":0,"CLASSIFICATION_TYPE":"U","NORAD_CAT_ID":43925,"ELEMENT_SET_NO":999,"REV_AT_EPOCH":37430,"BSTAR":-5.8408e-6,"MEAN_MOTION_DOT":3.0e-8,"MEAN_MOTION_DDOT":0},{"OBJECT_NAME":"IRIDIUM 169","OBJECT_ID":"2019-002E","EPOCH":"2026-03-07T01:47:43.990944","MEAN_MOTION":14.38611238,"ECCENTRICITY":0.0001472,"INCLINATION":86.4169,"RA_OF_ASC_NODE":67.8812,"ARG_OF_PERICENTER":78.8945,"MEAN_ANOMALY":281.2418,"EPHEMERIS_TYPE":0,"CLASSIFICATION_TYPE":"U","NORAD_CAT_ID":43926,"ELEMENT_SET_NO":999,"REV_AT_EPOCH":37554,"BSTAR":5.2859e-5,"MEAN_MOTION_DOT":1.82e-6,"MEAN_MOTION_DDOT":0},{"OBJECT_NAME":"IRIDIUM 172","OBJECT_ID":"2019-002F","EPOCH":"2026-03-07T04:17:26.707776","MEAN_MOTION":14.3421935,"ECCENTRICITY":0.0002387,"INCLINATION":86.3968,"RA_OF_ASC_NODE":36.1895,"ARG_OF_PERICENTER":86.1688,"MEAN_ANOMALY":273.978,"EPHEMERIS_TYPE":0,"CLASSIFICATION_TYPE":"U","NORAD_CAT_ID":43927,"ELEMENT_SET_NO":999,"REV_AT_EPOCH":37434,"BSTAR":6.4417e-5,"MEAN_MOTION_DOT":2.0e-6,"MEAN_MOTION_DDOT":0},{"OBJECT_NAME":"IRIDIUM 175","OBJECT_ID":"2019-002G","EPOCH":"2026-03-07T03:14:11.859936","MEAN_MOTION":14.72253941,"ECCENTRICITY":0.0002447,"INCLINATION":86.1542,"RA_OF_ASC_NODE":333.8719,"ARG_OF_PERICENTER":110.2323,"MEAN_ANOMALY":249.9157,"EPHEMERIS_TYPE":0,"CLASSIFICATION_TYPE":"U","NORAD_CAT_ID":43928,"ELEMENT_SET_NO":999,"REV_AT_EPOCH":38422,"BSTAR":0.00018875,"MEAN_MOTION_DOT":1.215e-5,"MEAN_MOTION_DDOT":0},{"OBJECT_NAME":"IRIDIUM 171","OBJECT_ID":"2019-002H","EPOCH":"2026-03-06T22:48:38.949120","MEAN_MOTION":14.34217461,"ECCENTRICITY":0.0002098,"INCLINATION":86.3977,"RA_OF_ASC_NODE":36.5799,"ARG_OF_PERICENTER":91.9646,"MEAN_ANOMALY":268.179,"EPHEMERIS_TYPE":0,"CLASSIFICATION_TYPE":"U","NORAD_CAT_ID":43929,"ELEMENT_SET_NO":999,"REV_AT_EPOCH":37430,"BSTAR":-1.9226e-6,"MEAN_MOTION_DOT":1.4e-7,"MEAN_MOTION_DDOT":0},{"OBJECT_NAME":"IRIDIUM 170","OBJECT_ID":"2019-002J","EPOCH":"2026-03-06T22:36:06.180480","MEAN_MOTION":14.72253456,"ECCENTRICITY":0.0002708,"INCLINATION":86.6089,"RA_OF_ASC_NODE":36.2742,"ARG_OF_PERICENTER":89.6796,"MEAN_ANOMALY":270.4732,"EPHEMERIS_TYPE":0,"CLASSIFICATION_TYPE":"U","NORAD_CAT_ID":43930,"ELEMENT_SET_NO":999,"REV_AT_EPOCH":38421,"BSTAR":0.00019464,"MEAN_MOTION_DOT":1.252e-5,"MEAN_MOTION_DDOT":0},{"OBJECT_NAME":"IRIDIUM 167","OBJECT_ID":"2019-002K","EPOCH":"2026-03-07T00:19:58.882944","MEAN_MOTION":14.34217352,"ECCENTRICITY":0.0001767,"INCLINATION":86.3965,"RA_OF_ASC_NODE":36.2804,"ARG_OF_PERICENTER":92.0902,"MEAN_ANOMALY":268.0496,"EPHEMERIS_TYPE":0,"CLASSIFICATION_TYPE":"U","NORAD_CAT_ID":43931,"ELEMENT_SET_NO":999,"REV_AT_EPOCH":37431,"BSTAR":-1.3078e-5,"MEAN_MOTION_DOT":-1.7e-7,"MEAN_MOTION_DDOT":0},{"OBJECT_NAME":"IRIDIUM 181","OBJECT_ID":"2023-068S","EPOCH":"2026-03-07T02:56:59.221824","MEAN_MOTION":14.43316622,"ECCENTRICITY":0.0002634,"INCLINATION":86.4456,"RA_OF_ASC_NODE":99.4735,"ARG_OF_PERICENTER":96.5729,"MEAN_ANOMALY":263.5772,"EPHEMERIS_TYPE":0,"CLASSIFICATION_TYPE":"U","NORAD_CAT_ID":56726,"ELEMENT_SET_NO":999,"REV_AT_EPOCH":14771,"BSTAR":0.00010198,"MEAN_MOTION_DOT":3.63e-6,"MEAN_MOTION_DDOT":0},{"OBJECT_NAME":"IRIDIUM 177","OBJECT_ID":"2023-068T","EPOCH":"2026-03-07T02:36:49.383360","MEAN_MOTION":14.80251725,"ECCENTRICITY":0.0002317,"INCLINATION":86.2002,"RA_OF_ASC_NODE":17.2471,"ARG_OF_PERICENTER":80.3476,"MEAN_ANOMALY":279.8006,"EPHEMERIS_TYPE":0,"CLASSIFICATION_TYPE":"U","NORAD_CAT_ID":56727,"ELEMENT_SET_NO":999,"REV_AT_EPOCH":15126,"BSTAR":0.00023724,"MEAN_MOTION_DOT":1.83e-5,"MEAN_MOTION_DDOT":0},{"OBJECT_NAME":"IRIDIUM 174","OBJECT_ID":"2023-068U","EPOCH":"2026-03-06T22:18:17.910144","MEAN_MOTION":14.72258045,"ECCENTRICITY":0.0002566,"INCLINATION":86.6097,"RA_OF_ASC_NODE":36.4164,"ARG_OF_PERICENTER":80.3466,"MEAN_ANOMALY":279.8041,"EPHEMERIS_TYPE":0,"CLASSIFICATION_TYPE":"U","NORAD_CAT_ID":56728,"ELEMENT_SET_NO":999,"REV_AT_EPOCH":15097,"BSTAR":0.00021281,"MEAN_MOTION_DOT":1.367e-5,"MEAN_MOTION_DDOT":0},{"OBJECT_NAME":"IRIDIUM 178","OBJECT_ID":"2023-068V","EPOCH":"2026-03-07T00:43:50.630304","MEAN_MOTION":14.80233493,"ECCENTRICITY":0.0002403,"INCLINATION":86.6483,"RA_OF_ASC_NODE":68.0507,"ARG_OF_PERICENTER":100.8049,"MEAN_ANOMALY":259.3443,"EPHEMERIS_TYPE":0,"CLASSIFICATION_TYPE":"U","NORAD_CAT_ID":56729,"ELEMENT_SET_NO":999,"REV_AT_EPOCH":15125,"BSTAR":8.1677e-5,"MEAN_MOTION_DOT":6.47e-6,"MEAN_MOTION_DDOT":0},{"OBJECT_NAME":"IRIDIUM 179","OBJECT_ID":"2023-068W","EPOCH":"2026-03-07T02:13:27.419808","MEAN_MOTION":14.80234613,"ECCENTRICITY":0.0002297,"INCLINATION":86.6719,"RA_OF_ASC_NODE":76.7084,"ARG_OF_PERICENTER":95.0941,"MEAN_ANOMALY":265.0542,"EPHEMERIS_TYPE":0,"CLASSIFICATION_TYPE":"U","NORAD_CAT_ID":56730,"ELEMENT_SET_NO":999,"REV_AT_EPOCH":15126,"BSTAR":7.2091e-5,"MEAN_MOTION_DOT":5.74e-6,"MEAN_MOTION_DDOT":0}]
